{
    "links": {
        "self": "http://www.neowsapp.com/rest/v1/neo/3788139?api_key=iIulBulltgU6a56xZRHN4H3l9WmuAYTsLGpBGhQ2"
    },
    "id": "3788139",
    "neo_reference_id": "3788139",
    "name": "(2017 UA43)",
    "designation": "2017 UA43",
    "nasa_jpl_url": "http://ssd.jpl.nasa.gov/sbdb.cgi?sstr=3788139",
    "absolute_magnitude_h": 24.8,
    "estimated_diameter": {
        "kilometers": {
            "estimated_diameter_min": 0.0291443905,
            "estimated_diameter_max": 0.0651688382
        },
        "meters": {
            "estimated_diameter_min": 29.1443904535,
            "estimated_diameter_max": 65.1688382168
        },
        "miles": {
            "estimated_diameter_min": 0.018109479,
            "estimated_diameter_max": 0.0404940262
        },
        "feet": {
            "estimated_diameter_min": 95.6180819754,
            "estimated_diameter_max": 213.8085311752
        }
    },
    "is_potentially_hazardous_asteroid": false,
    "close_approach_data": [
        {
            "close_approach_date": "2017-11-10",
            "close_approach_date_full": "2017-Nov-10 22:11",
            "epoch_date_close_approach": 1510351860000,
            "relative_velocity": {
                "kilometers_per_second": "8.8247215552",
                "kilometers_per_hour": "31768.9975988051",
                "miles_per_hour": "19740.0196468798"
            },
            "miss_distance": {
                "astronomical": "0.0774716031",
                "lunar": "30.1364536059",
                "kilometers": "11589586.809245397",
                "miles": "7201435.3082725986"
            },
            "orbiting_body": "Earth"
        }
    ],
    "orbital_data": {
        "orbit_id": "4",
        "orbit_determination_date": "2017-11-16 07:20:54",
        "first_observation_date": "2017-10-28",
        "last_observation_date": "2017-11-15",
        "data_arc_in_days": 18,
        "observations_used": 38,
        "orbit_uncertainty": "9",
        "minimum_orbit_intersection": ".0694029",
        "jupiter_tisserand_invariant": "3.643",
        "epoch_osculation": "2458062.5",
        "eccentricity": ".4950704060930286",
        "semi_major_axis": "2.022335996905662",
        "inclination": "8.890956049126787",
        "ascending_node_longitude": "217.5160684789386",
        "orbital_period": "1050.457279986113",
        "perihelion_distance": "1.021137293661026",
        "perihelion_argument": "216.6284637488083",
        "aphelion_distance": "3.023534700150298",
        "perihelion_time": "2458089.057937403556",
        "mean_anomaly": "350.8983852580787",
        "mean_motion": ".3427078919427919",
        "equinox": "J2000",
        "orbit_class": {
            "orbit_class_type": "AMO",
            "orbit_class_description": "Near-Earth asteroid orbits similar to that of 1221 Amor",
            "orbit_class_range": "1.017 AU < q (perihelion) < 1.3 AU"
        }
    },
    "is_sentry_object": false
}